start=new Date('2022-01-14T00:00:00.000Z').valueOf();
sats=[{"ARG_OF_PERICENTER":"74.8084","SEMIMAJOR_AXIS":"6925.348","COUNTRY_CODE":"US","MEAN_MOTION":"15.06400300","LAUNCH_DATE":"2020-10-18","REV_AT_EPOCH":"6865","RA_OF_ASC_NODE":"206.7067","EPOCH":"2022-01-13T19:12:18.777312","MEAN_ELEMENT_THEORY":"SGP4","TLE_LINE1":"1 46701U 20073AH  22013.80021733  .00000699  00000-0  65843-4 0  9996","NORAD_CAT_ID":"46701","CENTER_NAME":"EARTH","RCS_SIZE":"LARGE","TIME_SYSTEM":"UTC","OBJECT_TYPE":"PAYLOAD","MEAN_ANOMALY":"285.3157","OBJECT_ID":"2020-073AH","OBJECT_NAME":"STARLINK-1801","PERIAPSIS":"545.635","TLE_LINE2":"2 46701  53.0545 206.7067 0002278  74.8084 285.3157 15.06400300 68655","ELEMENT_SET_NO":"999","MEAN_MOTION_DOT":"0.00000699","SITE":"AFETR","CLASSIFICATION_TYPE":"U","DECAY_DATE":null,"EPHEMERIS_TYPE":"0","MEAN_MOTION_DDOT":"0.0000000000000","PERIOD":"95.592","REF_FRAME":"TEME","BSTAR":"0.00006584300000","INCLINATION":"53.0545","FILE":"3272312","ECCENTRICITY":"0.00022780","APOAPSIS":"548.790","GP_ID":"193812174"},{"MEAN_ELEMENT_THEORY":"SGP4","EPOCH":"2022-01-13T17:55:21.664128","NORAD_CAT_ID":"46702","TLE_LINE1":"1 46702U 20073AJ  22013.74677852  .00000108  00000-0  26166-4 0  9999","CENTER_NAME":"EARTH","RA_OF_ASC_NODE":"186.9608","OBJECT_TYPE":"PAYLOAD","TIME_SYSTEM":"UTC","RCS_SIZE":"LARGE","MEAN_ANOMALY":"288.9384","OBJECT_ID":"2020-073AJ","ARG_OF_PERICENTER":"71.1868","SEMIMAJOR_AXIS":"6925.390","COUNTRY_CODE":"US","MEAN_MOTION":"15.06386552","LAUNCH_DATE":"2020-10-18","REV_AT_EPOCH":"6892","REF_FRAME":"TEME","INCLINATION":"53.0534","BSTAR":"0.00002616600000","ECCENTRICITY":"0.00024320","FILE":"3272312","APOAPSIS":"548.939","GP_ID":"193810922","PERIAPSIS":"545.571","TLE_LINE2":"2 46702  53.0534 186.9608 0002432  71.1868 288.9384 15.06386552 68929","OBJECT_NAME":"STARLINK-1802","CLASSIFICATION_TYPE":"U","SITE":"AFETR","DECAY_DATE":null,"ELEMENT_SET_NO":"999","MEAN_MOTION_DOT":"0.00000108","EPHEMERIS_TYPE":"0","MEAN_MOTION_DDOT":"0.0000000000000","PERIOD":"95.593"},{"SEMIMAJOR_AXIS":"6925.324","ARG_OF_PERICENTER":"73.2051","COUNTRY_CODE":"US","MEAN_MOTION":"15.06407954","LAUNCH_DATE":"2020-10-18","REV_AT_EPOCH":"6865","RA_OF_ASC_NODE":"206.5107","MEAN_ELEMENT_THEORY":"SGP4","EPOCH":"2022-01-13T20:16:00.808320","CENTER_NAME":"EARTH","TLE_LINE1":"1 46703U 20073AK  22013.84445380  .00001044  00000-0  88985-4 0  9997","NORAD_CAT_ID":"46703","RCS_SIZE":"LARGE","OBJECT_TYPE":"PAYLOAD","TIME_SYSTEM":"UTC","MEAN_ANOMALY":"286.9187","OBJECT_ID":"2020-073AK","OBJECT_NAME":"STARLINK-1803","PERIAPSIS":"545.616","TLE_LINE2":"2 46703  53.0531 206.5107 0002272  73.2051 286.9187 15.06407954 68658","ELEMENT_SET_NO":"999","MEAN_MOTION_DOT":"0.00001044","CLASSIFICATION_TYPE":"U","SITE":"AFETR","DECAY_DATE":null,"EPHEMERIS_TYPE":"0","MEAN_MOTION_DDOT":"0.0000000000000","PERIOD":"95.592","REF_FRAME":"TEME","BSTAR":"0.00008898500000","INCLINATION":"53.0531","FILE":"3272312","ECCENTRICITY":"0.00022720","APOAPSIS":"548.763","GP_ID":"193811172"},{"MEAN_ANOMALY":"281.7975","OBJECT_ID":"2020-073AL","TLE_LINE1":"1 46704U 20073AL  22013.75782530 -.00000910  00000-0 -42163-4 0  9990","NORAD_CAT_ID":"46704","CENTER_NAME":"EARTH","MEAN_ELEMENT_THEORY":"SGP4","EPOCH":"2022-01-13T18:11:16.105920","RA_OF_ASC_NODE":"186.8990","TIME_SYSTEM":"UTC","OBJECT_TYPE":"PAYLOAD","RCS_SIZE":"LARGE","REV_AT_EPOCH":"6892","MEAN_MOTION":"15.06393544","COUNTRY_CODE":"US","SEMIMAJOR_AXIS":"6925.368","ARG_OF_PERICENTER":"78.3347","LAUNCH_DATE":"2020-10-18","FILE":"3272312","ECCENTRICITY":"0.00029740","APOAPSIS":"549.293","GP_ID":"193811423","REF_FRAME":"TEME","INCLINATION":"53.0552","BSTAR":"-0.00004216300000","EPHEMERIS_TYPE":"0","MEAN_MOTION_DDOT":"0.0000000000000","PERIOD":"95.593","PERIAPSIS":"545.174","TLE_LINE2":"2 46704  53.0552 186.8990 0002974  78.3347 281.7975 15.06393544 68922","OBJECT_NAME":"STARLINK-1804","DECAY_DATE":null,"SITE":"AFETR","CLASSIFICATION_TYPE":"U","MEAN_MOTION_DOT":"-0.00000910","ELEMENT_SET_NO":"999"},{"EPHEMERIS_TYPE":"0","PERIOD":"95.592","MEAN_MOTION_DDOT":"0.0000000000000","OBJECT_NAME":"STARLINK-1805","PERIAPSIS":"545.404","TLE_LINE2":"2 46705  53.0533 221.8311 0002625  66.1404 293.9860 15.06397268 68432","ELEMENT_SET_NO":"999","MEAN_MOTION_DOT":"0.00001168","SITE":"AFETR","CLASSIFICATION_TYPE":"U","DECAY_DATE":null,"ECCENTRICITY":"0.00026250","FILE":"3272312","GP_ID":"193811674","APOAPSIS":"549.040","REF_FRAME":"TEME","BSTAR":"0.00009735900000","INCLINATION":"53.0533","REV_AT_EPOCH":"6843","ARG_OF_PERICENTER":"66.1404","SEMIMAJOR_AXIS":"6925.357","COUNTRY_CODE":"US","MEAN_MOTION":"15.06397268","LAUNCH_DATE":"2020-10-18","MEAN_ANOMALY":"293.9860","OBJECT_ID":"2020-073AM","RA_OF_ASC_NODE":"221.8311","MEAN_ELEMENT_THEORY":"SGP4","EPOCH":"2022-01-13T18:30:30.676032","NORAD_CAT_ID":"46705","TLE_LINE1":"1 46705U 20073AM  22013.77118838  .00001168  00000-0  97359-4 0  9998","CENTER_NAME":"EARTH","RCS_SIZE":"LARGE","OBJECT_TYPE":"PAYLOAD","TIME_SYSTEM":"UTC"},{"EPHEMERIS_TYPE":"0","MEAN_MOTION_DDOT":"0.0000000000000","PERIOD":"95.592","TLE_LINE2":"2 46706  53.0529 206.6490 0002197  77.4005 282.7229 15.06404324 68654","PERIAPSIS":"545.679","OBJECT_NAME":"STARLINK-1807","CLASSIFICATION_TYPE":"U","SITE":"AFETR","DECAY_DATE":null,"ELEMENT_SET_NO":"999","MEAN_MOTION_DOT":"0.00001201","ECCENTRICITY":"0.00021970","FILE":"3272312","GP_ID":"193810422","APOAPSIS":"548.722","REF_FRAME":"TEME","INCLINATION":"53.0529","BSTAR":"0.00009949600000","REV_AT_EPOCH":"6865","SEMIMAJOR_AXIS":"6925.335","ARG_OF_PERICENTER":"77.4005","COUNTRY_CODE":"US","MEAN_MOTION":"15.06404324","LAUNCH_DATE":"2020-10-18","MEAN_ANOMALY":"282.7229","OBJECT_ID":"2020-073AN","EPOCH":"2022-01-13T19:28:14.198016","MEAN_ELEMENT_THEORY":"SGP4","TLE_LINE1":"1 46706U 20073AN  22013.81127544  .00001201  00000-0  99496-4 0  9990","CENTER_NAME":"EARTH","NORAD_CAT_ID":"46706","RA_OF_ASC_NODE":"206.6490","OBJECT_TYPE":"PAYLOAD","TIME_SYSTEM":"UTC","RCS_SIZE":"LARGE"},{"EPHEMERIS_TYPE":"0","PERIOD":"95.592","MEAN_MOTION_DDOT":"0.0000000000000","OBJECT_NAME":"STARLINK-1808","PERIAPSIS":"544.901","TLE_LINE2":"2 46707  53.0529 186.4007 0003349  71.5044 288.6308 15.06397683 68946","ELEMENT_SET_NO":"999","MEAN_MOTION_DOT":"0.00001093","SITE":"AFETR","CLASSIFICATION_TYPE":"U","DECAY_DATE":null,"ECCENTRICITY":"0.00033490","FILE":"3272312","APOAPSIS":"549.540","GP_ID":"193810672","REF_FRAME":"TEME","BSTAR":"0.00009229300000","INCLINATION":"53.0529","REV_AT_EPOCH":"6894","SEMIMAJOR_AXIS":"6925.356","ARG_OF_PERICENTER":"71.5044","COUNTRY_CODE":"US","MEAN_MOTION":"15.06397683","LAUNCH_DATE":"2020-10-18","MEAN_ANOMALY":"288.6308","OBJECT_ID":"2020-073AP","RA_OF_ASC_NODE":"186.4007","MEAN_ELEMENT_THEORY":"SGP4","EPOCH":"2022-01-13T20:50:30.732864","TLE_LINE1":"1 46707U 20073AP  22013.86841126  .00001093  00000-0  92293-4 0  9992","CENTER_NAME":"EARTH","NORAD_CAT_ID":"46707","RCS_SIZE":"LARGE","TIME_SYSTEM":"UTC","OBJECT_TYPE":"PAYLOAD"},{"EPOCH":"2022-01-13T16:03:19.930752","MEAN_ELEMENT_THEORY":"SGP4","TLE_LINE1":"1 46708U 20073AQ  22013.66898068  .00023389  00000-0  31228-3 0  9990","NORAD_CAT_ID":"46708","CENTER_NAME":"EARTH","RA_OF_ASC_NODE":"153.9670","OBJECT_TYPE":"PAYLOAD","TIME_SYSTEM":"UTC","RCS_SIZE":"LARGE","MEAN_ANOMALY":"154.5699","OBJECT_ID":"2020-073AQ","SEMIMAJOR_AXIS":"6771.609","ARG_OF_PERICENTER":"205.5276","MEAN_MOTION":"15.57991132","COUNTRY_CODE":"US","LAUNCH_DATE":"2020-10-18","REV_AT_EPOCH":"6938","REF_FRAME":"TEME","INCLINATION":"53.0529","BSTAR":"0.00031228000000","FILE":"3272312","ECCENTRICITY":"0.00007450","APOAPSIS":"393.978","GP_ID":"193811924","TLE_LINE2":"2 46708  53.0529 153.9670 0000745 205.5276 154.5699 15.57991132 69383","PERIAPSIS":"392.969","OBJECT_NAME":"STARLINK-1809","CLASSIFICATION_TYPE":"U","SITE":"AFETR","DECAY_DATE":null,"ELEMENT_SET_NO":"999","MEAN_MOTION_DOT":"0.00023389","EPHEMERIS_TYPE":"0","PERIOD":"92.427","MEAN_MOTION_DDOT":"0.0000000000000"},{"OBJECT_TYPE":"PAYLOAD","TIME_SYSTEM":"UTC","RCS_SIZE":"LARGE","MEAN_ELEMENT_THEORY":"SGP4","EPOCH":"2022-01-13T19:11:36.449088","TLE_LINE1":"1 46709U 20073AR  22013.79972742  .00001283  00000-0  10505-3 0  9991","NORAD_CAT_ID":"46709","CENTER_NAME":"EARTH","RA_OF_ASC_NODE":"221.7109","OBJECT_ID":"2020-073AR","MEAN_ANOMALY":"291.3031","LAUNCH_DATE":"2020-10-18","ARG_OF_PERICENTER":"68.8201","SEMIMAJOR_AXIS":"6925.354","MEAN_MOTION":"15.06398331","COUNTRY_CODE":"US","REV_AT_EPOCH":"6843","INCLINATION":"53.0558","BSTAR":"0.00010505000000","REF_FRAME":"TEME","GP_ID":"193812175","APOAPSIS":"548.791","ECCENTRICITY":"0.00022700","FILE":"3272312","SITE":"AFETR","CLASSIFICATION_TYPE":"U","DECAY_DATE":null,"ELEMENT_SET_NO":"999","MEAN_MOTION_DOT":"0.00001283","TLE_LINE2":"2 46709  53.0558 221.7109 0002270  68.8201 291.3031 15.06398331 68431","PERIAPSIS":"545.647","OBJECT_NAME":"STARLINK-1810","PERIOD":"95.592","MEAN_MOTION_DDOT":"0.0000000000000","EPHEMERIS_TYPE":"0"},{"LAUNCH_DATE":"2020-10-18","COUNTRY_CODE":"US","MEAN_MOTION":"15.06396110","ARG_OF_PERICENTER":"72.5482","SEMIMAJOR_AXIS":"6925.360","REV_AT_EPOCH":"6845","RCS_SIZE":"LARGE","TIME_SYSTEM":"UTC","OBJECT_TYPE":"PAYLOAD","RA_OF_ASC_NODE":"221.2835","TLE_LINE1":"1 46710U 20073AS  22013.89651398  .00001242  00000-0  10232-3 0  9997","CENTER_NAME":"EARTH","NORAD_CAT_ID":"46710","MEAN_ELEMENT_THEORY":"SGP4","EPOCH":"2022-01-13T21:30:58.807872","OBJECT_ID":"2020-073AS","MEAN_ANOMALY":"287.5766","MEAN_MOTION_DOT":"0.00001242","ELEMENT_SET_NO":"999","DECAY_DATE":null,"SITE":"AFETR","CLASSIFICATION_TYPE":"U","OBJECT_NAME":"STARLINK-1811","TLE_LINE2":"2 46710  53.0522 221.2835 0002378  72.5482 287.5766 15.06396110 68454","PERIAPSIS":"545.579","MEAN_MOTION_DDOT":"0.0000000000000","PERIOD":"95.592","EPHEMERIS_TYPE":"0","BSTAR":"0.00010232000000","INCLINATION":"53.0522","REF_FRAME":"TEME","GP_ID":"193810923","APOAPSIS":"548.872","FILE":"3272312","ECCENTRICITY":"0.00023780"}];
